[{"COMMENT":"GENERATED VIA SPACETRACK.ORG API","ORIGINATOR":"18 SPCS","NORAD_CAT_ID":"43476","OBJECT_NAME":"GRACE-FO 1","OBJECT_TYPE":"PAYLOAD","CLASSIFICATION_TYPE":"U","INTLDES":"18047A","EPOCH":"2023-12-04 22:55:29","EPOCH_MICROSECONDS":"78688","MEAN_MOTION":"15.27513199","ECCENTRICITY":"0.0016727","INCLINATION":"88.9816","RA_OF_ASC_NODE":"325.9236","ARG_OF_PERICENTER":"98.5539","MEAN_ANOMALY":"261.7607","EPHEMERIS_TYPE":"0","ELEMENT_SET_NO":"999","REV_AT_EPOCH":"30805","BSTAR":"0.00014482","MEAN_MOTION_DOT":"0.0000394","MEAN_MOTION_DDOT":"0","FILE":"4122657","TLE_LINE0":"0 GRACE-FO 1","TLE_LINE1":"1 43476U 18047A   23338.95519767  .00003940  00000-0  14482-3 0  9990","TLE_LINE2":"2 43476  88.9816 325.9236 0016727  98.5539 261.7607 15.27513199308056","OBJECT_ID":"2018-047A","OBJECT_NUMBER":"43476","SEMIMAJOR_AXIS":"6861.386","PERIOD":"94.271","APOGEE":"494.728","PERIGEE":"471.774","DECAYED":"0"},{"COMMENT":"GENERATED VIA SPACETRACK.ORG API","ORIGINATOR":"18 SPCS","NORAD_CAT_ID":"43476","OBJECT_NAME":"GRACE-FO 1","OBJECT_TYPE":"PAYLOAD","CLASSIFICATION_TYPE":"U","INTLDES":"18047A","EPOCH":"2023-12-04 13:29:27","EPOCH_MICROSECONDS":"759840","MEAN_MOTION":"15.27510523","ECCENTRICITY":"0.0016709","INCLINATION":"88.9816","RA_OF_ASC_NODE":"325.9775","ARG_OF_PERICENTER":"99.7711","MEAN_ANOMALY":"260.5426","EPHEMERIS_TYPE":"0","ELEMENT_SET_NO":"999","REV_AT_EPOCH":"30799","BSTAR":"0.0001612","MEAN_MOTION_DOT":"0.00004382","MEAN_MOTION_DDOT":"0","FILE":"4122164","TLE_LINE0":"0 GRACE-FO 1","TLE_LINE1":"1 43476U 18047A   23338.56212685  .00004382  00000-0  16120-3 0  9998","TLE_LINE2":"2 43476  88.9816 325.9775 0016709  99.7711 260.5426 15.27510523307995","OBJECT_ID":"2018-047A","OBJECT_NUMBER":"43476","SEMIMAJOR_AXIS":"6861.394","PERIOD":"94.271","APOGEE":"494.724","PERIGEE":"471.794","DECAYED":"0"},{"COMMENT":"GENERATED VIA SPACETRACK.ORG API","ORIGINATOR":"18 SPCS","NORAD_CAT_ID":"43476","OBJECT_NAME":"GRACE-FO 1","OBJECT_TYPE":"PAYLOAD","CLASSIFICATION_TYPE":"U","INTLDES":"18047A","EPOCH":"2023-12-04 11:55:07","EPOCH_MICROSECONDS":"548960","MEAN_MOTION":"15.27509204","ECCENTRICITY":"0.0016707","INCLINATION":"88.9816","RA_OF_ASC_NODE":"325.9864","ARG_OF_PERICENTER":"99.9887","MEAN_ANOMALY":"260.3249","EPHEMERIS_TYPE":"0","ELEMENT_SET_NO":"999","REV_AT_EPOCH":"30798","BSTAR":"0.00015239","MEAN_MOTION_DOT":"0.00004144","MEAN_MOTION_DDOT":"0","FILE":"4121674","TLE_LINE0":"0 GRACE-FO 1","TLE_LINE1":"1 43476U 18047A   23338.49661515  .00004144  00000-0  15239-3 0  9996","TLE_LINE2":"2 43476  88.9816 325.9864 0016707  99.9887 260.3249 15.27509204307982","OBJECT_ID":"2018-047A","OBJECT_NUMBER":"43476","SEMIMAJOR_AXIS":"6861.398","PERIOD":"94.271","APOGEE":"494.726","PERIGEE":"471.800","DECAYED":"0"},{"COMMENT":"GENERATED VIA SPACETRACK.ORG API","ORIGINATOR":"18 SPCS","NORAD_CAT_ID":"43476","OBJECT_NAME":"GRACE-FO 1","OBJECT_TYPE":"PAYLOAD","CLASSIFICATION_TYPE":"U","INTLDES":"18047A","EPOCH":"2023-12-03 13:54:24","EPOCH_MICROSECONDS":"143040","MEAN_MOTION":"15.27502198","ECCENTRICITY":"0.0016676","INCLINATION":"88.9817","RA_OF_ASC_NODE":"326.1121","ARG_OF_PERICENTER":"102.8762","MEAN_ANOMALY":"257.4351","EPHEMERIS_TYPE":"0","ELEMENT_SET_NO":"999","REV_AT_EPOCH":"30784","BSTAR":"0.00018962","MEAN_MOTION_DOT":"0.00005147","MEAN_MOTION_DDOT":"0","FILE":"4120389","TLE_LINE0":"0 GRACE-FO 1","TLE_LINE1":"1 43476U 18047A   23337.57944610  .00005147  00000-0  18962-3 0  9994","TLE_LINE2":"2 43476  88.9817 326.1121 0016676 102.8762 257.4351 15.27502198307844","OBJECT_ID":"2018-047A","OBJECT_NUMBER":"43476","SEMIMAJOR_AXIS":"6861.419","PERIOD":"94.272","APOGEE":"494.726","PERIGEE":"471.842","DECAYED":"0"},{"COMMENT":"GENERATED VIA SPACETRACK.ORG API","ORIGINATOR":"18 SPCS","NORAD_CAT_ID":"43476","OBJECT_NAME":"GRACE-FO 1","OBJECT_TYPE":"PAYLOAD","CLASSIFICATION_TYPE":"U","INTLDES":"18047A","EPOCH":"2023-12-03 02:54:02","EPOCH_MICROSECONDS":"304864","MEAN_MOTION":"15.27496341","ECCENTRICITY":"0.0016654","INCLINATION":"88.9816","RA_OF_ASC_NODE":"326.1748","ARG_OF_PERICENTER":"104.232","MEAN_ANOMALY":"256.0781","EPHEMERIS_TYPE":"0","ELEMENT_SET_NO":"999","REV_AT_EPOCH":"30777","BSTAR":"0.00019156","MEAN_MOTION_DOT":"0.00005199","MEAN_MOTION_DDOT":"0","FILE":"4119311","TLE_LINE0":"0 GRACE-FO 1","TLE_LINE1":"1 43476U 18047A   23337.12086001  .00005199  00000-0  19156-3 0  9999","TLE_LINE2":"2 43476  88.9816 326.1748 0016654 104.2320 256.0781 15.27496341307776","OBJECT_ID":"2018-047A","OBJECT_NUMBER":"43476","SEMIMAJOR_AXIS":"6861.437","PERIOD":"94.272","APOGEE":"494.729","PERIGEE":"471.875","DECAYED":"0"},{"COMMENT":"GENERATED VIA SPACETRACK.ORG API","ORIGINATOR":"18 SPCS","NORAD_CAT_ID":"43476","OBJECT_NAME":"GRACE-FO 1","OBJECT_TYPE":"PAYLOAD","CLASSIFICATION_TYPE":"U","INTLDES":"18047A","EPOCH":"2023-12-02 22:11:01","EPOCH_MICROSECONDS":"471776","MEAN_MOTION":"15.27494655","ECCENTRICITY":"0.0016645","INCLINATION":"88.9816","RA_OF_ASC_NODE":"326.2018","ARG_OF_PERICENTER":"104.9107","MEAN_ANOMALY":"255.3986","EPHEMERIS_TYPE":"0","ELEMENT_SET_NO":"999","REV_AT_EPOCH":"30774","BSTAR":"0.00019535","MEAN_MOTION_DOT":"0.00005301","MEAN_MOTION_DDOT":"0","FILE":"4119201","TLE_LINE0":"0 GRACE-FO 1","TLE_LINE1":"1 43476U 18047A   23336.92432259  .00005301  00000-0  19535-3 0  9992","TLE_LINE2":"2 43476  88.9816 326.2018 0016645 104.9107 255.3986 15.27494655307749","OBJECT_ID":"2018-047A","OBJECT_NUMBER":"43476","SEMIMAJOR_AXIS":"6861.442","PERIOD":"94.272","APOGEE":"494.728","PERIGEE":"471.886","DECAYED":"0"},{"COMMENT":"GENERATED VIA SPACETRACK.ORG API","ORIGINATOR":"18 SPCS","NORAD_CAT_ID":"43476","OBJECT_NAME":"GRACE-FO 1","OBJECT_TYPE":"PAYLOAD","CLASSIFICATION_TYPE":"U","INTLDES":"18047A","EPOCH":"2023-12-02 12:44:59","EPOCH_MICROSECONDS":"739072","MEAN_MOTION":"15.27490232","ECCENTRICITY":"0.0016622","INCLINATION":"88.9816","RA_OF_ASC_NODE":"326.2556","ARG_OF_PERICENTER":"106.1658","MEAN_ANOMALY":"254.1423","EPHEMERIS_TYPE":"0","ELEMENT_SET_NO":"999","REV_AT_EPOCH":"30768","BSTAR":"0.00022141","MEAN_MOTION_DOT":"0.00006003","MEAN_MOTION_DDOT":"0","FILE":"4118466","TLE_LINE0":"0 GRACE-FO 1","TLE_LINE1":"1 43476U 18047A   23336.53124698  .00006003  00000-0  22141-3 0  9991","TLE_LINE2":"2 43476  88.9816 326.2556 0016622 106.1658 254.1423 15.27490232307689","OBJECT_ID":"2018-047A","OBJECT_NUMBER":"43476","SEMIMAJOR_AXIS":"6861.455","PERIOD":"94.272","APOGEE":"494.725","PERIGEE":"471.915","DECAYED":"0"},{"COMMENT":"GENERATED VIA SPACETRACK.ORG API","ORIGINATOR":"18 SPCS","NORAD_CAT_ID":"43476","OBJECT_NAME":"GRACE-FO 1","OBJECT_TYPE":"PAYLOAD","CLASSIFICATION_TYPE":"U","INTLDES":"18047A","EPOCH":"2023-12-02 00:10:17","EPOCH_MICROSECONDS":"264928","MEAN_MOTION":"15.27483785","ECCENTRICITY":"0.0016578","INCLINATION":"88.9815","RA_OF_ASC_NODE":"326.3275","ARG_OF_PERICENTER":"107.7497","MEAN_ANOMALY":"252.5563","EPHEMERIS_TYPE":"0","ELEMENT_SET_NO":"999","REV_AT_EPOCH":"30760","BSTAR":"0.00022471","MEAN_MOTION_DOT":"0.00006091","MEAN_MOTION_DDOT":"0","FILE":"4117081","TLE_LINE0":"0 GRACE-FO 1","TLE_LINE1":"1 43476U 18047A   23336.00714427  .00006091  00000-0  22471-3 0  9991","TLE_LINE2":"2 43476  88.9815 326.3275 0016578 107.7497 252.5563 15.27483785307609","OBJECT_ID":"2018-047A","OBJECT_NUMBER":"43476","SEMIMAJOR_AXIS":"6861.474","PERIOD":"94.273","APOGEE":"494.714","PERIGEE":"471.964","DECAYED":"0"},{"COMMENT":"GENERATED VIA SPACETRACK.ORG API","ORIGINATOR":"18 SPCS","NORAD_CAT_ID":"43476","OBJECT_NAME":"GRACE-FO 1","OBJECT_TYPE":"PAYLOAD","CLASSIFICATION_TYPE":"U","INTLDES":"18047A","EPOCH":"2023-12-01 22:35:56","EPOCH_MICROSECONDS":"933088","MEAN_MOTION":"15.27482976","ECCENTRICITY":"0.0016572","INCLINATION":"88.9815","RA_OF_ASC_NODE":"326.3364","ARG_OF_PERICENTER":"107.9433","MEAN_ANOMALY":"252.3625","EPHEMERIS_TYPE":"0","ELEMENT_SET_NO":"999","REV_AT_EPOCH":"30759","BSTAR":"0.00022309","MEAN_MOTION_DOT":"0.00006047","MEAN_MOTION_DDOT":"0","FILE":"4116981","TLE_LINE0":"0 GRACE-FO 1","TLE_LINE1":"1 43476U 18047A   23335.94163117  .00006047  00000-0  22309-3 0  9998","TLE_LINE2":"2 43476  88.9815 326.3364 0016572 107.9433 252.3625 15.27482976307590","OBJECT_ID":"2018-047A","OBJECT_NUMBER":"43476","SEMIMAJOR_AXIS":"6861.477","PERIOD":"94.273","APOGEE":"494.712","PERIGEE":"471.971","DECAYED":"0"},{"COMMENT":"GENERATED VIA SPACETRACK.ORG API","ORIGINATOR":"18 SPCS","NORAD_CAT_ID":"43476","OBJECT_NAME":"GRACE-FO 1","OBJECT_TYPE":"PAYLOAD","CLASSIFICATION_TYPE":"U","INTLDES":"18047A","EPOCH":"2023-11-30 18:17:50","EPOCH_MICROSECONDS":"476128","MEAN_MOTION":"15.27469976","ECCENTRICITY":"0.0016491","INCLINATION":"88.9812","RA_OF_ASC_NODE":"326.4982","ARG_OF_PERICENTER":"111.7161","MEAN_ANOMALY":"248.5846","EPHEMERIS_TYPE":"0","ELEMENT_SET_NO":"999","REV_AT_EPOCH":"30741","BSTAR":"0.00021731","MEAN_MOTION_DOT":"0.00005889","MEAN_MOTION_DDOT":"0","FILE":"4114992","TLE_LINE0":"0 GRACE-FO 1","TLE_LINE1":"1 43476U 18047A   23334.76238977  .00005889  00000-0  21731-3 0  9995","TLE_LINE2":"2 43476  88.9812 326.4982 0016491 111.7161 248.5846 15.27469976307413","OBJECT_ID":"2018-047A","OBJECT_NUMBER":"43476","SEMIMAJOR_AXIS":"6861.516","PERIOD":"94.274","APOGEE":"494.696","PERIGEE":"472.065","DECAYED":"0"}]